LOCATION,LOCATIONNAME,LOCATIONTYPE,COUNTRY,POSTALCODE,CITY,ADDRESS,LATITUDE,LONGITUDE,ACTIVEFROM,ACTIVEUPTO,STATE
CFE-7653,Yang PLC,SUPPLIER,US,54114,South Shawn,6824 Brittney Island,-33.2664835,37.6371165,05-07-86,05-20-22,TN
CCF-8585,Andrews Group,SUPPLIER,US,5562,New Jamie,8712 Debra Grove,-53.5305155,-71.039056,11-14-16,05-24-22,LI
FCB-4515,"Walter, Reed and Ward",SUPPLIER,US,364,Lisaland,919 Stephanie Shoals Apt. 978,-12.852132,-87.496025,03-20-08,05-25-22,GE
FAF-0763,"Ryan, Bailey and Morris",SUPPLIER,US,0449,Longton,8406 Wright Coves Apt. 866,81.6195415,54.583094,03-28-99,05-21-22,KE
ABF-1320,Bush Ltd,SUPPLIER,US,11066,Millerville,885 Thompson Well Suite 307,36.8321715,-23.711747,08-08-78,05-20-22,CN
DFF-0810,"Bright, Copeland and Gutierrez",STORE,US,84311,New Zacharyhaven,8396 Lisa Hill Apt. 024,-21.3089035,-81.640845,06-03-13,05-20-22,SC
CCD-3941,West LLC,SUPPLIER,US,275,Bowersview,9660 Scott Manor Apt. 165,-26.767898,-83.6629915,06-02-92,05-23-22,NP
DEA-7682,"Watson, Rowe and Knox",DISTRIBUTION_CENTER,US,04916,Elizabethshire,30924 Snyder Trail Suite 339,22.651655,47.187564,12-07-10,05-23-22,TL
DCC-8880,Bullock Inc,STORE,US,79803,Christophermouth,226 Green Camp,9.3947615,77.335917,05-21-07,05-23-22,CO
BAB-4285,"Gillespie, Lee and Sherman",DISTRIBUTION_CENTER,US,280,North Davidfurt,0271 Bishop Village,9.0487795,27.7894735,06-18-18,05-25-22,DZ
EFD-7503,Durham-Warner,SUPPLIER,US,8336,Mckeeside,0822 Maria Ramp Suite 181,-83.5895515,73.234581,02-13-82,05-21-22,DJ
AFB-9703,Powell PLC,SUPPLIER,US,10551,Jeremyport,2478 Jennifer Fall Apt. 594,-55.6332875,-27.264188,12-05-78,05-21-22,AT
BDB-6078,Moore Ltd,STORE,US,66127,Port Meghanland,96256 Amanda Mountains,79.2872745,-65.700755,05-04-78,05-26-22,VE
FCB-3415,Torres-Brown,DISTRIBUTION_CENTER,US,03929,South Andrewfurt,783 Lester Islands Apt. 126,16.6843905,-14.509701,06-21-11,05-25-22,HN
BDC-4916,Lam LLC,DISTRIBUTION_CENTER,US,64934,North Sheenahaven,26347 Brandon Shoal Apt. 508,-63.279136,-43.71052,02-16-72,05-25-22,BO
CFD-7745,Guerrero-Wu,STORE,US,5697,Lake Robertshire,2562 Anita Terrace,36.4816095,-83.847302,01-05-11,05-22-22,MW
CFE-1781,Stokes-Parks,SUPPLIER,US,9423,New Benjamin,3371 Samantha Spur Apt. 600,-21.440354,-24.3521565,02-14-04,05-24-22,LV
BFA-6144,"Anderson, Shah and Cook",SUPPLIER,US,0409,South Sharon,3044 Solomon Branch,-22.824891,-78.005403,12-21-81,05-23-22,AR
ECD-0374,Miller LLC,DISTRIBUTION_CENTER,US,7590,Bradleyland,173 Jamie Centers,31.3077535,-45.5244065,09-22-15,05-23-22,TN
EAF-0196,"Adkins, Gonzales and Hernandez",SUPPLIER,US,50796,Nicolasmouth,7845 White Isle Suite 618,-23.494004,35.925461,09-21-01,05-25-22,NI
BDC-5548,White-Hansen,STORE,US,18016,Robinsonberg,09150 Catherine Mission,-57.9002985,24.789589,07-21-93,05-26-22,KH
DAD-0088,"Wilson, Weaver and Lee",SUPPLIER,US,729,Sarahhaven,52547 Johnson Mall Apt. 188,-64.518564,51.657929,12-16-78,05-25-22,BW
BBE-6183,Lozano-Nguyen,DISTRIBUTION_CENTER,US,53020,South Rodney,8714 Erin Rapid Apt. 434,-14.1272725,20.8488075,05-10-93,05-20-22,SZ
AAA-3126,"Sweeney, Roach and Gibson",STORE,US,656,Laratown,02616 Smith Station,-12.669155,77.51698,01-16-71,05-25-22,GR
AAD-8638,"Alvarado, Williams and Green",DISTRIBUTION_CENTER,US,909,Rodgersside,584 Larson Forks,-33.882714,30.7965275,09-12-12,05-22-22,SI
FAF-9983,"Webb, Silva and Ford",STORE,US,83676,West Morganmouth,85038 James Cove,78.790412,-47.682433,02-03-99,05-22-22,AF
EDC-4791,Walker-Baker,STORE,US,0929,Johnsonfort,0517 Robert Bypass Apt. 374,-2.4250985,-78.496518,03-02-76,05-21-22,CO
ECC-5706,Walker PLC,STORE,US,77864,East Marybury,7145 Donald Isle Apt. 587,39.3688785,22.8243835,07-10-14,05-26-22,BW
CBC-7581,Mayer-Kramer,SUPPLIER,US,00732,New Katrinaberg,9906 Philip Knoll,-59.5483635,-73.023738,01-09-13,05-23-22,QA
FEC-6552,Adams-Koch,DISTRIBUTION_CENTER,US,7619,Lake Brianstad,02446 Andrea Squares,89.0002765,7.5607055,05-15-99,05-24-22,SN
BEC-8215,Bradley-Wyatt,STORE,US,780,Michaelhaven,53274 Turner Valleys,-79.705314,29.963007,07-24-76,05-26-22,RO
AFA-8430,Bradford-Lopez,STORE,US,690,North Steventown,03180 Howard Expressway,12.2417735,-8.250275,12-27-89,05-28-22,KI
AFB-2393,Scott Group,STORE,US,15329,New Sara,1197 Austin Islands,-1.946213,8.7760235,04-12-85,05-28-22,OM
BCE-0479,Ramirez and Sons,STORE,US,214,East Jessebury,780 Michael Drive Apt. 994,56.2180635,-38.186659,10-05-98,05-23-22,ME
BBC-6046,Anderson-Moses,STORE,US,663,West Sergio,98556 Lindsey Fork,18.398399,76.1668515,10-20-72,05-24-22,PG
DBC-9636,"Riley, Hampton and Merritt",DISTRIBUTION_CENTER,US,838,West Markmouth,283 Chandler Ranch Suite 399,67.21861,-12.20593,11-16-06,05-27-22,TR
AAC-3091,Hayes-Hoffman,DISTRIBUTION_CENTER,US,9291,Moodyborough,85584 Guerrero Park,36.257032,65.7040075,12-03-00,05-27-22,CD
AEC-7008,"Jackson, Park and Gomez",SUPPLIER,US,08268,Antonioshire,42876 Michael Coves,54.2865705,19.759886,12-20-70,05-24-22,VA
FFC-5191,Pearson Ltd,DISTRIBUTION_CENTER,US,2647,Williamsmouth,884 Alex Glens,31.5562815,3.1945605,11-29-20,05-24-22,CO
FBB-7511,Mueller-Thompson,DISTRIBUTION_CENTER,US,267,Randalltown,0498 Thomas Canyon Suite 463,50.5890195,-77.4580665,12-31-88,05-22-22,OM
BDC-6311,Gibbs-Mcmillan,DISTRIBUTION_CENTER,US,6719,Kleintown,872 Reyes Rapids,-89.204502,-37.591817,05-18-98,05-24-22,KN
DCD-4043,"Vang, Frank and Bowman",SUPPLIER,US,069,New Rossmouth,242 Vargas Inlet Suite 593,29.6313995,1.2311575,05-16-73,05-26-22,ZA
FBD-5136,Middleton Ltd,SUPPLIER,US,122,Angelafort,6133 Tracy Tunnel,-62.658317,-71.3504925,01-12-98,05-22-22,CO
FBF-6745,"Mejia, Black and Johnson",STORE,US,35530,Smithstad,6671 Kenneth Underpass Suite 087,-57.033322,87.0475325,12-20-75,05-20-22,VU
CBC-9208,"Hale, Smith and Garcia",DISTRIBUTION_CENTER,US,18966,Jorgeshire,3185 Beth Dale,46.6877425,-14.1751075,05-28-08,05-23-22,LA
ACC-4382,Campbell Group,DISTRIBUTION_CENTER,US,91152,Lake Ricardo,36464 Melissa Springs Suite 192,26.2780505,18.0264495,04-26-11,05-28-22,VU
CCF-5154,Smith Group,SUPPLIER,US,3547,Stoneberg,35744 Thompson Neck,84.312366,45.964871,01-25-91,05-22-22,LC
BAA-7320,"Gibbs, Melendez and Chang",SUPPLIER,US,729,Tiffanyland,410 Jessica Mountains,-34.754787,-36.552745,10-19-89,05-20-22,MT
AEA-8664,Anderson-Mcgrath,SUPPLIER,US,66732,Suzannetown,9247 Peters Meadow Apt. 750,-8.142322,-17.33298,12-22-21,05-28-22,PL
FFD-4216,"Harrison, Sanchez and Mullen",STORE,US,377,West Keithside,910 Choi Pines,61.724311,2.2523515,11-07-74,05-21-22,KZ
CDE-7269,Lee-Donovan,SUPPLIER,US,92158,Port Juan,4655 Kristy Roads Apt. 299,49.2185835,5.947262,06-27-80,05-27-22,AG
CFE-7269,Torres Group,STORE,US,21484,New Kerriberg,72448 Mcneil Orchard,-79.4811875,29.3939765,06-11-08,05-21-22,UZ
ECA-5120,"Kaufman, Petersen and Roman",DISTRIBUTION_CENTER,US,3539,New Donaldmouth,0918 Moore Mills,26.985483,-51.8451445,05-20-09,05-26-22,BO
DEF-1165,Hudson LLC,SUPPLIER,US,4571,North Christopherview,33964 Jefferson Terrace Suite 430,35.927133,-33.9850615,05-29-97,05-22-22,BY
FDE-0546,Pierce Ltd,DISTRIBUTION_CENTER,US,60359,West Kathryn,97155 Michelle Bypass Suite 006,-5.741343,-4.074904,12-17-78,05-26-22,IL
FCE-9506,"Hunter, Harris and Horne",SUPPLIER,US,0439,Singhton,58008 Mendez Pike Apt. 924,60.636426,-50.367209,04-27-92,05-21-22,PK
BDB-5250,Reed-Martin,SUPPLIER,US,5805,Oconnorhaven,541 Cole Alley Apt. 861,76.573214,86.241112,03-03-82,05-20-22,ES
DDF-1608,Shaw Group,SUPPLIER,US,446,Annettefort,817 Hanson Fork,-80.9884695,-73.7461395,05-29-97,05-21-22,NZ
ACC-4448,"Owens, Brown and Austin",DISTRIBUTION_CENTER,US,01333,Phillipsburgh,732 Williams Center Suite 912,-61.5573215,-31.8898075,06-10-03,05-25-22,CG
CCB-5510,Brandt-Arnold,STORE,US,37609,Avilaton,7340 Kevin Corners Apt. 724,35.7491235,27.0321335,05-09-74,05-22-22,KG
CAC-4755,Walsh Inc,STORE,US,967,Jayport,03639 Lambert Station Apt. 338,-56.0315725,14.2810435,11-04-74,05-28-22,TV
DEF-9068,"Cohen, Boyer and Wilson",DISTRIBUTION_CENTER,US,801,North Justinberg,00770 Anderson Garden,14.66616,68.9411485,09-28-21,05-23-22,BD
EDE-5206,Rodriguez-Jones,SUPPLIER,US,6590,East Megan,8488 Howell Terrace Suite 677,0.1504425,32.876018,09-27-81,05-20-22,GM
ADC-0535,"Garcia, Sanders and Hampton",STORE,US,720,East Thomas,1443 Bryant Forest,-73.954091,-0.8423765,10-27-18,05-22-22,TR
BFF-6322,Wiggins-Kaufman,SUPPLIER,US,935,Frankmouth,13886 Alex Divide,-44.2299855,-7.3938985,03-19-88,05-20-22,LK
DFB-3709,"Hopkins, Perez and Gonzales",DISTRIBUTION_CENTER,US,97445,Flemingtown,704 Cassie Tunnel,-37.1434735,9.4751295,10-06-84,05-24-22,HU
CEE-7571,"Lam, Vance and Murphy",STORE,US,920,Oliviaberg,313 Sweeney Ferry,75.039567,-30.39099,01-17-06,05-26-22,HN
CFD-0490,Cox-Ross,DISTRIBUTION_CENTER,US,027,East Michaelland,9055 Becker Forges,-78.2489925,38.7980465,04-10-03,05-20-22,SG
ECB-5909,"Oliver, Vaughn and Vargas",SUPPLIER,US,5033,East Kayla,789 Ashley Ports Suite 863,-77.1703425,-20.4870655,12-11-01,05-27-22,IR
CDC-0215,Davenport-Jefferson,DISTRIBUTION_CENTER,US,592,Donnatown,1125 David Station,-64.6475315,37.9289625,12-05-14,05-24-22,KW
ACE-6009,Brown Inc,SUPPLIER,US,799,New Brittanyfurt,07275 Hernandez Vista,4.532264,-25.9251295,08-22-95,05-20-22,AT
BEE-9821,Robertson-Mcintyre,SUPPLIER,US,94734,Matthewstad,905 Frederick Street,-25.5288245,76.3109745,02-22-85,05-23-22,NG
AEC-1613,"Simmons, Morgan and Adams",SUPPLIER,US,7530,Bellville,18796 Williams Common Suite 137,14.0780385,73.308869,01-10-98,05-28-22,NR
BBF-0055,"Palmer, Jackson and Huber",SUPPLIER,US,112,Ryantown,52338 Harrison Field Suite 892,-89.3164505,-84.875296,04-26-19,05-28-22,TT
DBF-3941,"Martin, Simon and Diaz",SUPPLIER,US,5037,Mariahview,57042 Harrison Tunnel,69.374408,-71.0833925,01-31-00,05-28-22,BY
AEB-4941,Moon-King,DISTRIBUTION_CENTER,US,2929,Lake Michellemouth,14643 Weber Common Apt. 261,-60.172081,15.5974155,11-25-13,05-22-22,ZW
DDD-8427,"Robbins, Diaz and Chan",DISTRIBUTION_CENTER,US,7512,Hernandezfort,22511 Smith Mountain Apt. 708,46.422265,11.7478915,09-25-04,05-23-22,KW
AEA-8534,Powers Group,SUPPLIER,US,89378,Colinmouth,2498 Leonard Shoals Apt. 817,-2.0549985,-23.0533915,03-17-04,05-23-22,IR
DCD-3987,"Jones, Gutierrez and Werner",SUPPLIER,US,6017,Keithport,9246 Livingston Vista Apt. 421,30.1186305,-66.716837,12-23-20,05-25-22,KP
ADF-4151,Parker-Wagner,SUPPLIER,US,3075,Aguilarville,0944 Mary Mills,50.741589,82.40884,12-29-87,05-24-22,KG
DFA-1108,Smith-Tucker,STORE,US,8908,Bartonfurt,284 Sharon Union,-79.486106,32.1399205,05-03-99,05-27-22,SB
ECD-4654,Jennings LLC,DISTRIBUTION_CENTER,US,574,Rodriguezview,83452 Christine Corners Apt. 704,22.003786,57.7441215,09-27-81,05-21-22,VN
AEA-0221,Wang-Torres,DISTRIBUTION_CENTER,US,67794,North Williamport,4965 Richard Mountain,-37.2823975,29.492626,06-03-19,05-20-22,PT
FDE-0707,"Campbell, Moore and Thomas",DISTRIBUTION_CENTER,US,3037,Alvaradoland,132 Stephanie Lane,29.642684,-14.9695255,11-19-09,05-26-22,AG
DFD-6203,Dennis-Smith,DISTRIBUTION_CENTER,US,20220,West Johnside,855 Bradford Island Apt. 399,67.4694075,-36.675196,11-20-92,05-28-22,TV
CCA-2751,Carter-White,SUPPLIER,US,428,New Theresa,923 William Mountain Apt. 785,12.100877,63.3436015,09-06-85,05-22-22,ET
ADA-3036,"Zhang, Johnson and Smith",DISTRIBUTION_CENTER,US,2284,Clarkport,2217 Bailey Harbor,10.9908495,-31.264779,11-26-13,05-25-22,MV
EBC-1560,Le LLC,DISTRIBUTION_CENTER,US,56897,North Josephville,0978 Patricia Mall Apt. 398,42.62321,9.745118,10-13-94,05-20-22,SE
FBE-6201,Gregory-Maxwell,SUPPLIER,US,3115,West Courtney,550 Mitchell Mountains Apt. 423,-41.400818,-38.9776565,05-02-11,05-24-22,CV
FCB-5484,Miller PLC,DISTRIBUTION_CENTER,US,12298,Jeanport,9649 Bruce Mission Apt. 892,-6.915175,-41.182956,09-21-03,05-25-22,CZ
BBC-9976,"Cobb, Smith and Gonzales",STORE,US,1728,Mcbridestad,2511 Hernandez Union,-39.893303,50.4874305,04-03-14,05-24-22,IE
CBF-8590,White-Banks,DISTRIBUTION_CENTER,US,2605,Kelleyhaven,4267 Thomas Lakes,84.4338045,76.594962,06-23-99,05-20-22,AZ
BFE-6193,Garcia Inc,DISTRIBUTION_CENTER,US,8049,Port Marychester,81604 Bradford Lodge Suite 274,-32.8478315,21.497086,04-20-91,05-27-22,FR
BDC-2733,Murray PLC,STORE,US,5003,Garrettstad,76513 Christina Mission Suite 476,76.1004845,-16.625182,08-19-03,05-22-22,CV
AEC-9547,"Taylor, West and Johnson",SUPPLIER,US,50509,Port Richard,07714 Carlson Forest,12.957853,-6.800307,01-10-04,05-25-22,MN
FBB-3496,Williams LLC,SUPPLIER,US,3227,Edwardville,046 Richard Freeway Suite 437,-84.7240405,-46.941901,05-13-95,05-28-22,KP
BDD-7108,Ramsey-Pearson,STORE,US,2879,Sanderstown,76228 Connie Divide,59.472366,-70.9410355,11-02-96,05-21-22,AT
BCD-6565,"Walker, Edwards and Taylor",DISTRIBUTION_CENTER,US,5967,North Annafort,3071 Gates Islands,29.224995,19.157018,06-04-96,05-23-22,MN
BCF-9602,Miller PLC,STORE,US,28891,Hendrixchester,382 Stark Springs,43.145342,0.384462,03-26-90,05-21-22,TZ
CAF-2176,"Matthews, Robinson and Griffin",STORE,US,9292,New Stevenberg,275 Jacqueline Mountains Apt. 863,-8.9072005,-26.082211,01-13-83,05-21-22,KR
